[{"OBJECT_NAME":"KUIPER-00203","OBJECT_ID":"2026-030K","EPOCH":"2026-03-09T22:00:01.999584","MEAN_MOTION":15.12119903,"ECCENTRICITY":0.00114753,"INCLINATION":51.8873,"RA_OF_ASC_NODE":219.0557,"ARG_OF_PERICENTER":61.3884,"MEAN_ANOMALY":261.5536,"EPHEMERIS_TYPE":0,"CLASSIFICATION_TYPE":"U","NORAD_CAT_ID":67773,"ELEMENT_SET_NO":999,"REV_AT_EPOCH":368,"BSTAR":-0.068919543,"MEAN_MOTION_DOT":-0.01112832,"MEAN_MOTION_DDOT":0},{"OBJECT_NAME":"DIAMANT DEB","OBJECT_ID":"1967-014F","EPOCH":"2026-03-08T22:12:40.817952","MEAN_MOTION":14.36285339,"ECCENTRICITY":0.034388,"INCLINATION":38.9293,"RA_OF_ASC_NODE":272.8082,"ARG_OF_PERICENTER":97.8602,"MEAN_ANOMALY":266.1323,"EPHEMERIS_TYPE":0,"CLASSIFICATION_TYPE":"U","NORAD_CAT_ID":2685,"ELEMENT_SET_NO":999,"REV_AT_EPOCH":95305,"BSTAR":0.0015965488,"MEAN_MOTION_DOT":9.263e-5,"MEAN_MOTION_DDOT":0}]
